{
  "type": "FeatureCollection",
  "features": [
    {
      "type": "Feature",
      "properties": {
        "norad_id": 35061,
        "name": "COSMOS 2251 DEB",
        "group": "cosmos-2251-debris",
        "lat": -44.13802408452952,
        "lon": -56.22636588672684,
        "alt_km": 688.084436771629,
        "timestamp": "2025-12-05T09:41:19.528343+00:00",
        "meta_object_name": "COSMOS 2251 DEB",
        "meta_object_id": "1993-036AHQ",
        "meta_epoch": "2025-12-03T05:33:06.011712",
        "meta_mean_motion": 14.67690423,
        "meta_eccentricity": 0.0038808,
        "meta_inclination": 74.0447,
        "meta_ra_of_asc_node": 324.0838,
        "meta_arg_of_pericenter": 77.8847,
        "meta_mean_anomaly": 282.6667,
        "meta_ephemeris_type": 0,
        "meta_classification_type": "U",
        "meta_norad_cat_id": 35061,
        "meta_element_set_no": 999,
        "meta_rev_at_epoch": 88435,
        "meta_bstar": 0.0010187,
        "meta_mean_motion_dot": 5.838e-05,
        "meta_mean_motion_ddot": 0,
        "tle_line1": "1 35061U 93036AHQ 25337.23131958  .00005838  00000+0  10187-2 0  9990",
        "tle_line2": "2 35061  74.0447 324.0838 0038808  77.8847 282.6667 14.67690423884356"
      },
      "geometry": {
        "type": "Point",
        "coordinates": [
          -56.22636588672684,
          -44.13802408452952
        ]
      }
    },
    {
      "type": "Feature",
      "properties": {
        "norad_id": 35062,
        "name": "COSMOS 2251 DEB",
        "group": "cosmos-2251-debris",
        "lat": 60.6563126803663,
        "lon": -104.11509282084238,
        "alt_km": 717.2949420962159,
        "timestamp": "2025-12-05T09:41:19.528354+00:00",
        "meta_object_name": "COSMOS 2251 DEB",
        "meta_object_id": "1993-036AHR",
        "meta_epoch": "2025-12-01T08:58:12.976320",
        "meta_mean_motion": 14.22770227,
        "meta_eccentricity": 0.01291712,
        "meta_inclination": 74.0782,
        "meta_ra_of_asc_node": 113.6209,
        "meta_arg_of_pericenter": 116.5829,
        "meta_mean_anomaly": 244.8622,
        "meta_ephemeris_type": 0,
        "meta_classification_type": "U",
        "meta_norad_cat_id": 35062,
        "meta_element_set_no": 999,
        "meta_rev_at_epoch": 85337,
        "meta_bstar": 0.0022023834,
        "meta_mean_motion_dot": 5.359e-05,
        "meta_mean_motion_ddot": 0,
        "tle_line1": "1 35062U 93036AHR 25335.37376130  .00005359  00000+0  22024-2 0  9998",
        "tle_line2": "2 35062  74.0782 113.6209 0129171 116.5829 244.8622 14.22770227853379"
      },
      "geometry": {
        "type": "Point",
        "coordinates": [
          -104.11509282084238,
          60.6563126803663
        ]
      }
    },
    {
      "type": "Feature",
      "properties": {
        "norad_id": 35065,
        "name": "COSMOS 2251 DEB",
        "group": "cosmos-2251-debris",
        "lat": -71.42467732013196,
        "lon": 149.52271293603815,
        "alt_km": 738.569559220402,
        "timestamp": "2025-12-05T09:41:19.528364+00:00",
        "meta_object_name": "COSMOS 2251 DEB",
        "meta_object_id": "1993-036AHU",
        "meta_epoch": "2025-12-04T09:08:50.273088",
        "meta_mean_motion": 14.45690595,
        "meta_eccentricity": 0.001954,
        "meta_inclination": 74.0197,
        "meta_ra_of_asc_node": 209.9385,
        "meta_arg_of_pericenter": 336.1768,
        "meta_mean_anomaly": 23.8484,
        "meta_ephemeris_type": 0,
        "meta_classification_type": "U",
        "meta_norad_cat_id": 35065,
        "meta_element_set_no": 999,
        "meta_rev_at_epoch": 68230,
        "meta_bstar": 0.00075616,
        "meta_mean_motion_dot": 2.657e-05,
        "meta_mean_motion_ddot": 0,
        "tle_line1": "1 35065U 93036AHU 25338.38113742  .00002657  00000+0  75616-3 0  9997",
        "tle_line2": "2 35065  74.0197 209.9385 0019540 336.1768  23.8484 14.45690595682304"
      },
      "geometry": {
        "type": "Point",
        "coordinates": [
          149.52271293603815,
          -71.42467732013196
        ]
      }
    },
    {
      "type": "Feature",
      "properties": {
        "norad_id": 35071,
        "name": "COSMOS 2251 DEB",
        "group": "cosmos-2251-debris",
        "lat": 54.649914352820346,
        "lon": -147.5046533485957,
        "alt_km": 509.88234428575834,
        "timestamp": "2025-12-05T09:41:19.528374+00:00",
        "meta_object_name": "COSMOS 2251 DEB",
        "meta_object_id": "1993-036AJA",
        "meta_epoch": "2025-12-04T07:52:37.959168",
        "meta_mean_motion": 15.03201833,
        "meta_eccentricity": 0.0068384,
        "meta_inclination": 73.9311,
        "meta_ra_of_asc_node": 190.7296,
        "meta_arg_of_pericenter": 89.7721,
        "meta_mean_anomaly": 271.1302,
        "meta_ephemeris_type": 0,
        "meta_classification_type": "U",
        "meta_norad_cat_id": 35071,
        "meta_element_set_no": 999,
        "meta_rev_at_epoch": 67410,
        "meta_bstar": 0.0015966,
        "meta_mean_motion_dot": 0.00022767,
        "meta_mean_motion_ddot": 0,
        "tle_line1": "1 35071U 93036AJA 25338.32821712  .00022767  00000+0  15966-2 0  9996",
        "tle_line2": "2 35071  73.9311 190.7296 0068384  89.7721 271.1302 15.03201833674109"
      },
      "geometry": {
        "type": "Point",
        "coordinates": [
          -147.5046533485957,
          54.649914352820346
        ]
      }
    },
    {
      "type": "Feature",
      "properties": {
        "norad_id": 35073,
        "name": "COSMOS 2251 DEB",
        "group": "cosmos-2251-debris",
        "lat": -62.736024929653965,
        "lon": -160.6382488481398,
        "alt_km": 580.6054077834415,
        "timestamp": "2025-12-05T09:41:19.528385+00:00",
        "meta_object_name": "COSMOS 2251 DEB",
        "meta_object_id": "1993-036AJC",
        "meta_epoch": "2025-12-04T08:34:35.629248",
        "meta_mean_motion": 14.99782851,
        "meta_eccentricity": 0.0010153,
        "meta_inclination": 73.9994,
        "meta_ra_of_asc_node": 347.6554,
        "meta_arg_of_pericenter": 88.7089,
        "meta_mean_anomaly": 271.526,
        "meta_ephemeris_type": 0,
        "meta_classification_type": "U",
        "meta_norad_cat_id": 35073,
        "meta_element_set_no": 999,
        "meta_rev_at_epoch": 67353,
        "meta_bstar": 0.0059031,
        "meta_mean_motion_dot": 0.0007383,
        "meta_mean_motion_ddot": 0,
        "tle_line1": "1 35073U 93036AJC 25338.35735682  .00073830  00000+0  59031-2 0  9999",
        "tle_line2": "2 35073  73.9994 347.6554 0010153  88.7089 271.5260 14.99782851673536"
      },
      "geometry": {
        "type": "Point",
        "coordinates": [
          -160.6382488481398,
          -62.736024929653965
        ]
      }
    },
    {
      "type": "Feature",
      "properties": {
        "norad_id": 35284,
        "name": "COSMOS 2251 DEB",
        "group": "cosmos-2251-debris",
        "lat": 10.190498564976522,
        "lon": 94.98407980299733,
        "alt_km": 776.9693271705073,
        "timestamp": "2025-12-05T09:41:19.528395+00:00",
        "meta_object_name": "COSMOS 2251 DEB",
        "meta_object_id": "1993-036AJN",
        "meta_epoch": "2025-12-04T04:49:40.154016",
        "meta_mean_motion": 14.38302893,
        "meta_eccentricity": 0.0016445,
        "meta_inclination": 74.0489,
        "meta_ra_of_asc_node": 280.1443,
        "meta_arg_of_pericenter": 358.2781,
        "meta_mean_anomaly": 66.8763,
        "meta_ephemeris_type": 0,
        "meta_classification_type": "U",
        "meta_norad_cat_id": 35284,
        "meta_element_set_no": 999,
        "meta_rev_at_epoch": 65403,
        "meta_bstar": 0.00035677,
        "meta_mean_motion_dot": 1.061e-05,
        "meta_mean_motion_ddot": 0,
        "tle_line1": "1 35284U 93036AJN 25338.20115919  .00001061  00000+0  35677-3 0  9990",
        "tle_line2": "2 35284  74.0489 280.1443 0016445 358.2781  66.8763 14.38302893654037"
      },
      "geometry": {
        "type": "Point",
        "coordinates": [
          94.98407980299733,
          10.190498564976522
        ]
      }
    },
    {
      "type": "Feature",
      "properties": {
        "norad_id": 35287,
        "name": "COSMOS 2251 DEB",
        "group": "cosmos-2251-debris",
        "lat": 34.424067428570154,
        "lon": -59.064634292703985,
        "alt_km": 755.7621259942398,
        "timestamp": "2025-12-05T09:41:19.528428+00:00",
        "meta_object_name": "COSMOS 2251 DEB",
        "meta_object_id": "1993-036AJR",
        "meta_epoch": "2025-12-03T08:05:46.925952",
        "meta_mean_motion": 14.3636224,
        "meta_eccentricity": 0.0017175,
        "meta_inclination": 74.0299,
        "meta_ra_of_asc_node": 293.4128,
        "meta_arg_of_pericenter": 32.768,
        "meta_mean_anomaly": 122.7025,
        "meta_ephemeris_type": 0,
        "meta_classification_type": "U",
        "meta_norad_cat_id": 35287,
        "meta_element_set_no": 999,
        "meta_rev_at_epoch": 86757,
        "meta_bstar": 0.00022522,
        "meta_mean_motion_dot": 6.34e-06,
        "meta_mean_motion_ddot": 0,
        "tle_line1": "1 35287U 93036AJR 25337.33734868  .00000634  00000+0  22522-3 0  9996",
        "tle_line2": "2 35287  74.0299 293.4128 0017175  32.7680 122.7025 14.36362240867577"
      },
      "geometry": {
        "type": "Point",
        "coordinates": [
          -59.064634292703985,
          34.424067428570154
        ]
      }
    }
  ]
}